STARLINK-30075          
1 57616U 23119Q   24198.82291427  .00000626  00000+0  61406-4 0  9994
2 57616  43.0025 107.0955 0001599 262.4460  97.6200 15.02536771 52699
STARLINK-30148          
1 57617U 23119R   24199.15197703  .00000636  00000+0  62150-4 0  9992
2 57617  43.0028 105.2676 0001348 244.4760 115.5943 15.02535593 52738
STARLINK-30249          
1 57618U 23119S   24199.14864745  .00004192  00000+0  32516-3 0  9992
2 57618  43.0015 105.2409 0001205 271.6484  88.4220 15.02540695 52685
STARLINK-30141          
1 57620U 23119U   24199.13753756  .00001139  00000+0  99357-4 0  9998
2 57620  43.0034 105.1567 0001117 267.3571  92.7144 15.02552101 52682
STARLINK-30150          
1 57621U 23119V   24199.13864417  .00001721  00000+0  14241-3 0  9991
2 57621  43.0019 105.1654 0001147 267.6254  92.4457 15.02553403 52733
STARLINK-30056          
1 57622U 23119W   24199.13532616  .00002216  00000+0  17897-3 0  9995
2 57622  43.0037 105.1090 0001096 278.4445  81.6273 15.02551073 52730
STARLINK-30100          
1 57623U 23119X   24199.13199990 -.00000800  00000+0 -44143-4 0  9994
2 57623  43.0033 105.1140 0001079 267.9651  92.1067 15.02547138 52731
STARLINK-30309          
1 57632U 23122A   24199.17165455  .00000344  00000+0  40567-4 0  9998
2 57632  43.0027 118.0859 0001516 254.1414 105.9261 15.02530668 51823
STARLINK-30306          
1 57633U 23122B   24199.16832233  .00000622  00000+0  61143-4 0  9995
2 57633  43.0030 118.0614 0001304 261.9522  98.1172 15.02539083 51833
STARLINK-30323          
1 57634U 23122C   24198.76408233  .00000457  00000+0  48908-4 0  9990
2 57634  43.0023 106.5971 0001113 268.7452  91.3263 15.02541134 51947
STARLINK-30329          
1 57635U 23122D   24199.09852050 -.00001643  00000+0 -10658-3 0  9998
2 57635  43.0039 118.3959 0001210 279.9095  80.1611 15.02530663 51776
