[{"OBJECT_NAME":"STARLINK-30075","OBJECT_ID":"2023-119Q","EPOCH":"2024-07-16T19:44:59.792928","MEAN_MOTION":15.02536771,"ECCENTRICITY":0.0001599,"INCLINATION":43.0025,"RA_OF_ASC_NODE":107.0955,"ARG_OF_PERICENTER":262.446,"MEAN_ANOMALY":97.62,"EPHEMERIS_TYPE":0,"CLASSIFICATION_TYPE":"U","NORAD_CAT_ID":57616,"ELEMENT_SET_NO":999,"REV_AT_EPOCH":5269,"BSTAR":6.1406e-5,"MEAN_MOTION_DOT":6.26e-6,"MEAN_MOTION_DDOT":0},{"OBJECT_NAME":"STARLINK-30148","OBJECT_ID":"2023-119R","EPOCH":"2024-07-17T03:38:50.815392","MEAN_MOTION":15.02535593,"ECCENTRICITY":0.0001348,"INCLINATION":43.0028,"RA_OF_ASC_NODE":105.2676,"ARG_OF_PERICENTER":244.476,"MEAN_ANOMALY":115.5943,"EPHEMERIS_TYPE":0,"CLASSIFICATION_TYPE":"U","NORAD_CAT_ID":57617,"ELEMENT_SET_NO":999,"REV_AT_EPOCH":5273,"BSTAR":6.215e-5,"MEAN_MOTION_DOT":6.36e-6,"MEAN_MOTION_DDOT":0},{"OBJECT_NAME":"STARLINK-30249","OBJECT_ID":"2023-119S","EPOCH":"2024-07-17T03:34:03.139680","MEAN_MOTION":15.02540695,"ECCENTRICITY":0.0001205,"INCLINATION":43.0015,"RA_OF_ASC_NODE":105.2409,"ARG_OF_PERICENTER":271.6484,"MEAN_ANOMALY":88.422,"EPHEMERIS_TYPE":0,"CLASSIFICATION_TYPE":"U","NORAD_CAT_ID":57618,"ELEMENT_SET_NO":999,"REV_AT_EPOCH":5268,"BSTAR":0.00032516,"MEAN_MOTION_DOT":4.192e-5,"MEAN_MOTION_DDOT":0},{"OBJECT_NAME":"STARLINK-30141","OBJECT_ID":"2023-119U","EPOCH":"2024-07-17T03:18:03.245184","MEAN_MOTION":15.02552101,"ECCENTRICITY":0.0001117,"INCLINATION":43.0034,"RA_OF_ASC_NODE":105.1567,"ARG_OF_PERICENTER":267.3571,"MEAN_ANOMALY":92.7144,"EPHEMERIS_TYPE":0,"CLASSIFICATION_TYPE":"U","NORAD_CAT_ID":57620,"ELEMENT_SET_NO":999,"REV_AT_EPOCH":5268,"BSTAR":9.9357e-5,"MEAN_MOTION_DOT":1.139e-5,"MEAN_MOTION_DDOT":0},{"OBJECT_NAME":"STARLINK-30150","OBJECT_ID":"2023-119V","EPOCH":"2024-07-17T03:19:38.856288","MEAN_MOTION":15.02553403,"ECCENTRICITY":0.0001147,"INCLINATION":43.0019,"RA_OF_ASC_NODE":105.1654,"ARG_OF_PERICENTER":267.6254,"MEAN_ANOMALY":92.4457,"EPHEMERIS_TYPE":0,"CLASSIFICATION_TYPE":"U","NORAD_CAT_ID":57621,"ELEMENT_SET_NO":999,"REV_AT_EPOCH":5273,"BSTAR":0.00014241,"MEAN_MOTION_DOT":1.721e-5,"MEAN_MOTION_DDOT":0},{"OBJECT_NAME":"STARLINK-30056","OBJECT_ID":"2023-119W","EPOCH":"2024-07-17T03:14:52.180224","MEAN_MOTION":15.02551073,"ECCENTRICITY":0.0001096,"INCLINATION":43.0037,"RA_OF_ASC_NODE":105.109,"ARG_OF_PERICENTER":278.4445,"MEAN_ANOMALY":81.6273,"EPHEMERIS_TYPE":0,"CLASSIFICATION_TYPE":"U","NORAD_CAT_ID":57622,"ELEMENT_SET_NO":999,"REV_AT_EPOCH":5273,"BSTAR":0.00017897,"MEAN_MOTION_DOT":2.216e-5,"MEAN_MOTION_DDOT":0},{"OBJECT_NAME":"STARLINK-30100","OBJECT_ID":"2023-119X","EPOCH":"2024-07-17T03:10:04.791360","MEAN_MOTION":15.02547138,"ECCENTRICITY":0.0001079,"INCLINATION":43.0033,"RA_OF_ASC_NODE":105.114,"ARG_OF_PERICENTER":267.9651,"MEAN_ANOMALY":92.1067,"EPHEMERIS_TYPE":0,"CLASSIFICATION_TYPE":"U","NORAD_CAT_ID":57623,"ELEMENT_SET_NO":999,"REV_AT_EPOCH":5273,"BSTAR":-4.4143e-5,"MEAN_MOTION_DOT":-8.0e-6,"MEAN_MOTION_DDOT":0},{"OBJECT_NAME":"STARLINK-30309","OBJECT_ID":"2023-122A","EPOCH":"2024-07-17T04:07:10.953120","MEAN_MOTION":15.02530668,"ECCENTRICITY":0.0001516,"INCLINATION":43.0027,"RA_OF_ASC_NODE":118.0859,"ARG_OF_PERICENTER":254.1414,"MEAN_ANOMALY":105.9261,"EPHEMERIS_TYPE":0,"CLASSIFICATION_TYPE":"U","NORAD_CAT_ID":57632,"ELEMENT_SET_NO":999,"REV_AT_EPOCH":5182,"BSTAR":4.0567e-5,"MEAN_MOTION_DOT":3.44e-6,"MEAN_MOTION_DDOT":0},{"OBJECT_NAME":"STARLINK-30306","OBJECT_ID":"2023-122B","EPOCH":"2024-07-17T04:02:23.049312","MEAN_MOTION":15.02539083,"ECCENTRICITY":0.0001304,"INCLINATION":43.003,"RA_OF_ASC_NODE":118.0614,"ARG_OF_PERICENTER":261.9522,"MEAN_ANOMALY":98.1172,"EPHEMERIS_TYPE":0,"CLASSIFICATION_TYPE":"U","NORAD_CAT_ID":57633,"ELEMENT_SET_NO":999,"REV_AT_EPOCH":5183,"BSTAR":6.1143e-5,"MEAN_MOTION_DOT":6.22e-6,"MEAN_MOTION_DDOT":0},{"OBJECT_NAME":"STARLINK-30323","OBJECT_ID":"2023-122C","EPOCH":"2024-07-16T18:20:16.713312","MEAN_MOTION":15.02541134,"ECCENTRICITY":0.0001113,"INCLINATION":43.0023,"RA_OF_ASC_NODE":106.5971,"ARG_OF_PERICENTER":268.7452,"MEAN_ANOMALY":91.3263,"EPHEMERIS_TYPE":0,"CLASSIFICATION_TYPE":"U","NORAD_CAT_ID":57634,"ELEMENT_SET_NO":999,"REV_AT_EPOCH":5194,"BSTAR":4.8908e-5,"MEAN_MOTION_DOT":4.57e-6,"MEAN_MOTION_DDOT":0},{"OBJECT_NAME":"STARLINK-30329","OBJECT_ID":"2023-122D","EPOCH":"2024-07-17T02:21:52.171200","MEAN_MOTION":15.02530663,"ECCENTRICITY":0.000121,"INCLINATION":43.0039,"RA_OF_ASC_NODE":118.3959,"ARG_OF_PERICENTER":279.9095,"MEAN_ANOMALY":80.1611,"EPHEMERIS_TYPE":0,"CLASSIFICATION_TYPE":"U","NORAD_CAT_ID":57635,"ELEMENT_SET_NO":999,"REV_AT_EPOCH":5177,"BSTAR":-0.00010658,"MEAN_MOTION_DOT":-1.643e-5,"MEAN_MOTION_DDOT":0}]
